*******************************************************************************
Ephemeris / WWW_USER Thu May 23 08:24:32 2024 Pasadena, USA      / Horizons    
*******************************************************************************
Target body name: (2018 RY7)                      {source: JPL#20}
Center body name: Earth (399)                     {source: DE441}
Center-site name: Gemini South Obs., Cerro Pachon
*******************************************************************************
Start time      : A.D. 2018-Oct-02 22:53:00.0000 UT      
Stop  time      : A.D. 2018-Oct-03 10:10:00.0000 UT      
Step-size       : 1 minutes
*******************************************************************************
Target pole/equ : undefined
Target radii    : undefined                                                    
Center geodetic : 289.2634, -30.2406227, 2.71233  {E-lon(deg),Lat(deg),Alt(km)}
Center cylindric: 289.2634,5517.21435,-3194.81213 {E-lon(deg),Dxy(km),Dz(km)}
Center pole/equ : ITRF93                          {East-longitude positive}
Center radii    : 6378.137, 6378.137, 6356.752 km {Equator_a, b, pole_c}       
Target primary  : Sun
Vis. interferer : MOON (R_eq= 1737.400) km        {source: DE441}
Rel. light bend : Sun                             {source: DE441}
Rel. lght bnd GM: 1.3271E+11 km^3/s^2                                          
Small-body perts: Yes                             {source: SB441-N16}
Atmos refraction: NO (AIRLESS)
RA format       : HMS
Time format     : CAL 
Calendar mode   : Mixed Julian/Gregorian
RTS-only print  : NO       
EOP file        : eop.240522.p240815                                           
EOP coverage    : DATA-BASED 1962-JAN-20 TO 2024-MAY-22. PREDICTS-> 2024-AUG-14
Units conversion: 1 au= 149597870.700 km, c= 299792.458 km/s, 1 day= 86400.0 s 
Table cut-offs 1: Elevation (-90.0deg=NO ),Airmass (>38.000=NO), Daylight (YES)
Table cut-offs 2: Solar elongation (  0.0,180.0=NO ),Local Hour Angle( 0.0=NO )
Table cut-offs 3: RA/DEC angular rate (     0.0=NO )                           
*******************************************************************************
Initial IAU76/J2000 heliocentric ecliptic osculating elements (au, days, deg.):
  EPOCH=  2458422.5 ! 2018-Oct-31.00 (TDB)         Residual RMS= .22459        
   EC= .1470549687381346   QR= .8667733479166969   TP= 2458516.8896767548      
   OM= 2.838668085760325   W=  136.9006026425241   IN= 13.35135890147074       
  Equivalent ICRF heliocentric cartesian coordinates (au, au/d):
   X= 8.791791513870114E-01  Y= 4.508422091141234E-01  Z= 3.244113040133835E-01
  VX=-1.085418916943652E-02 VY= 1.006005810562689E-02 VZ= 7.673980932675997E-03
Asteroid physical parameters (km, seconds, rotational period in hours):        
   GM= n.a.                RAD= n.a.               ROTPER= n.a.                
   H= 24.4                 G= .150                 B-V= n.a.                   
                           ALBEDO= n.a.            STYP= n.a.                  
*******************************************************************************
 Date__(UT)__HR:MN     R.A._________(ICRF)_________DEC
******************************************************
$$SOE
 2018-Oct-03 05:02     23 22 01.978049 +11 00 48.45298
 2018-Oct-03 05:03     23 22 01.633361 +11 00 51.70257
 2018-Oct-03 05:04     23 22 01.288715 +11 00 54.95187
 2018-Oct-03 05:05     23 22 00.944111 +11 00 58.20090
 2018-Oct-03 05:06     23 22 00.599548 +11 01 01.44965
 2018-Oct-03 05:07     23 22 00.255027 +11 01 04.69812
 2018-Oct-03 05:08     23 21 59.910549 +11 01 07.94632
 2018-Oct-03 05:09     23 21 59.566114 +11 01 11.19425
 2018-Oct-03 05:10     23 21 59.221722 +11 01 14.44190
 2018-Oct-03 05:11     23 21 58.877373 +11 01 17.68928
 2018-Oct-03 05:12     23 21 58.533069 +11 01 20.93638
 2018-Oct-03 05:13     23 21 58.188809 +11 01 24.18321
 2018-Oct-03 05:14     23 21 57.844594 +11 01 27.42977
 2018-Oct-03 05:15     23 21 57.500425 +11 01 30.67606
 2018-Oct-03 05:16     23 21 57.156300 +11 01 33.92207
 2018-Oct-03 05:17     23 21 56.812222 +11 01 37.16781
 2018-Oct-03 05:18     23 21 56.468189 +11 01 40.41329
 2018-Oct-03 05:19     23 21 56.124204 +11 01 43.65849
 2018-Oct-03 05:20     23 21 55.780265 +11 01 46.90343
 2018-Oct-03 05:21     23 21 55.436373 +11 01 50.14809
 2018-Oct-03 05:22     23 21 55.092530 +11 01 53.39249
 2018-Oct-03 05:23     23 21 54.748734 +11 01 56.63662
 2018-Oct-03 05:24     23 21 54.404987 +11 01 59.88048
 2018-Oct-03 05:25     23 21 54.061288 +11 02 03.12407
 2018-Oct-03 05:26     23 21 53.717639 +11 02 06.36740
 2018-Oct-03 05:27     23 21 53.374038 +11 02 09.61047
 2018-Oct-03 05:28     23 21 53.030488 +11 02 12.85327
 2018-Oct-03 05:29     23 21 52.686988 +11 02 16.09580
 2018-Oct-03 05:30     23 21 52.343539 +11 02 19.33807
 2018-Oct-03 05:31     23 21 52.000140 +11 02 22.58008
 2018-Oct-03 05:32     23 21 51.656793 +11 02 25.82182
 2018-Oct-03 05:33     23 21 51.313497 +11 02 29.06331
 2018-Oct-03 05:34     23 21 50.970253 +11 02 32.30453
 2018-Oct-03 05:35     23 21 50.627061 +11 02 35.54549
 2018-Oct-03 05:36     23 21 50.283922 +11 02 38.78619
 2018-Oct-03 05:37     23 21 49.940836 +11 02 42.02663
 2018-Oct-03 05:38     23 21 49.597803 +11 02 45.26681
 2018-Oct-03 05:39     23 21 49.254824 +11 02 48.50673
 2018-Oct-03 05:40     23 21 48.911899 +11 02 51.74640
 2018-Oct-03 05:41     23 21 48.569028 +11 02 54.98581
 2018-Oct-03 05:42     23 21 48.226212 +11 02 58.22496
 2018-Oct-03 05:43     23 21 47.883451 +11 03 01.46385
 2018-Oct-03 05:44     23 21 47.540745 +11 03 04.70249
 2018-Oct-03 05:45     23 21 47.198095 +11 03 07.94088
 2018-Oct-03 05:46     23 21 46.855501 +11 03 11.17901
 2018-Oct-03 05:47     23 21 46.512963 +11 03 14.41689
 2018-Oct-03 05:48     23 21 46.170482 +11 03 17.65452
 2018-Oct-03 05:49     23 21 45.828058 +11 03 20.89189
 2018-Oct-03 05:50     23 21 45.485691 +11 03 24.12901
 2018-Oct-03 05:51     23 21 45.143382 +11 03 27.36588
 2018-Oct-03 05:52     23 21 44.801131 +11 03 30.60250
 2018-Oct-03 05:53     23 21 44.458938 +11 03 33.83888
 2018-Oct-03 05:54     23 21 44.116804 +11 03 37.07500
 2018-Oct-03 05:55     23 21 43.774729 +11 03 40.31087
 2018-Oct-03 05:56     23 21 43.432714 +11 03 43.54650
 2018-Oct-03 05:57     23 21 43.090757 +11 03 46.78188
 2018-Oct-03 05:58     23 21 42.748861 +11 03 50.01702
 2018-Oct-03 05:59     23 21 42.407025 +11 03 53.25191
 2018-Oct-03 06:00     23 21 42.065250 +11 03 56.48656
 2018-Oct-03 06:01     23 21 41.723536 +11 03 59.72096
 2018-Oct-03 06:02     23 21 41.381883 +11 04 02.95512
 2018-Oct-03 06:03     23 21 41.040291 +11 04 06.18903
 2018-Oct-03 06:04     23 21 40.698761 +11 04 09.42271
 2018-Oct-03 06:05     23 21 40.357294 +11 04 12.65614
 2018-Oct-03 06:06     23 21 40.015889 +11 04 15.88934
 2018-Oct-03 06:07     23 21 39.674547 +11 04 19.12229
 2018-Oct-03 06:08     23 21 39.333268 +11 04 22.35501
 2018-Oct-03 06:09     23 21 38.992052 +11 04 25.58748
 2018-Oct-03 06:10  m  23 21 38.650900 +11 04 28.81972
 2018-Oct-03 06:11  m  23 21 38.309812 +11 04 32.05173
 2018-Oct-03 06:12  m  23 21 37.968788 +11 04 35.28350
 2018-Oct-03 06:13  m  23 21 37.627829 +11 04 38.51503
 2018-Oct-03 06:14  m  23 21 37.286935 +11 04 41.74633
 2018-Oct-03 06:15  m  23 21 36.946107 +11 04 44.97740
 2018-Oct-03 06:16  m  23 21 36.605343 +11 04 48.20823
 2018-Oct-03 06:17  m  23 21 36.264646 +11 04 51.43883
 2018-Oct-03 06:18  m  23 21 35.924015 +11 04 54.66920
 2018-Oct-03 06:19  m  23 21 35.583450 +11 04 57.89934
 2018-Oct-03 06:20  m  23 21 35.242952 +11 05 01.12925
 2018-Oct-03 06:21  m  23 21 34.902521 +11 05 04.35893
 2018-Oct-03 06:22  m  23 21 34.562157 +11 05 07.58839
 2018-Oct-03 06:23  m  23 21 34.221861 +11 05 10.81761
 2018-Oct-03 06:24  m  23 21 33.881633 +11 05 14.04662
 2018-Oct-03 06:25  m  23 21 33.541473 +11 05 17.27539
 2018-Oct-03 06:26  m  23 21 33.201381 +11 05 20.50394
 2018-Oct-03 06:27  m  23 21 32.861359 +11 05 23.73227
 2018-Oct-03 06:28  m  23 21 32.521405 +11 05 26.96037
 2018-Oct-03 06:29  m  23 21 32.181521 +11 05 30.18825
 2018-Oct-03 06:30  m  23 21 31.841706 +11 05 33.41591
 2018-Oct-03 06:31  m  23 21 31.501961 +11 05 36.64335
 2018-Oct-03 06:32  m  23 21 31.162286 +11 05 39.87057
 2018-Oct-03 06:33  m  23 21 30.822682 +11 05 43.09757
 2018-Oct-03 06:34  m  23 21 30.483148 +11 05 46.32436
 2018-Oct-03 06:35  m  23 21 30.143686 +11 05 49.55092
 2018-Oct-03 06:36  m  23 21 29.804294 +11 05 52.77727
 2018-Oct-03 06:37  m  23 21 29.464975 +11 05 56.00341
 2018-Oct-03 06:38  m  23 21 29.125727 +11 05 59.22933
 2018-Oct-03 06:39  m  23 21 28.786551 +11 06 02.45503
 2018-Oct-03 06:40  m  23 21 28.447447 +11 06 05.68052
 2018-Oct-03 06:41  m  23 21 28.108417 +11 06 08.90580
 2018-Oct-03 06:42  m  23 21 27.769459 +11 06 12.13087
 2018-Oct-03 06:43  m  23 21 27.430574 +11 06 15.35573
 2018-Oct-03 06:44  m  23 21 27.091762 +11 06 18.58038
 2018-Oct-03 06:45  m  23 21 26.753024 +11 06 21.80482
 2018-Oct-03 06:46  m  23 21 26.414361 +11 06 25.02906
 2018-Oct-03 06:47  m  23 21 26.075771 +11 06 28.25309
 2018-Oct-03 06:48  m  23 21 25.737256 +11 06 31.47691
 2018-Oct-03 06:49  m  23 21 25.398815 +11 06 34.70052
 2018-Oct-03 06:50  m  23 21 25.060450 +11 06 37.92394
 2018-Oct-03 06:51  m  23 21 24.722159 +11 06 41.14714
 2018-Oct-03 06:52  m  23 21 24.383944 +11 06 44.37015
 2018-Oct-03 06:53  m  23 21 24.045805 +11 06 47.59296
 2018-Oct-03 06:54  m  23 21 23.707742 +11 06 50.81556
 2018-Oct-03 06:55  m  23 21 23.369755 +11 06 54.03797
 2018-Oct-03 06:56  m  23 21 23.031844 +11 06 57.26018
 2018-Oct-03 06:57  m  23 21 22.694010 +11 07 00.48219
 2018-Oct-03 06:58  m  23 21 22.356253 +11 07 03.70400
 2018-Oct-03 06:59  m  23 21 22.018573 +11 07 06.92562
 2018-Oct-03 07:00  m  23 21 21.680971 +11 07 10.14704
 2018-Oct-03 07:01  m  23 21 21.343446 +11 07 13.36827
 2018-Oct-03 07:02  m  23 21 21.005999 +11 07 16.58930
 2018-Oct-03 07:03  m  23 21 20.668630 +11 07 19.81014
 2018-Oct-03 07:04  m  23 21 20.331340 +11 07 23.03080
